OBJECT_NAME,OBJECT_ID,EPOCH,MEAN_MOTION,ECCENTRICITY,INCLINATION,RA_OF_ASC_NODE,ARG_OF_PERICENTER,MEAN_ANOMALY,EPHEMERIS_TYPE,CLASSIFICATION_TYPE,NORAD_CAT_ID,ELEMENT_SET_NO,REV_AT_EPOCH,BSTAR,MEAN_MOTION_DOT,MEAN_MOTION_DDOT
STARLINK-2340,2021-021Y,2024-01-20T19:34:40.353312,15.06417587,.0001305,53.0518,168.1177,95.0786,265.0352,0,U,47882,999,15832,.41402E-3,.5894E-4,0
STARLINK-2342,2021-021Z,2024-01-20T18:54:11.723616,15.06414099,.0001236,53.0533,173.2450,94.2915,265.8215,0,U,47883,999,15824,.16771E-3,.2218E-4,0
STARLINK-2343,2021-021AA,2024-01-20T16:54:07.771968,15.06401563,.000126,53.0541,178.6213,87.6531,272.4602,0,U,47884,999,15816,.68195E-4,.735E-5,0
STARLINK-2344,2021-021AB,2024-01-20T18:21:01.357920,15.06443322,.0000969,53.0546,183.3490,57.2279,302.8804,0,U,47885,999,15809,-.47753E-3,-.7395E-4,0
STARLINK-2346,2021-021AD,2024-01-20T17:20:41.509824,15.06400758,.0001669,53.0527,178.5387,69.8301,290.2868,0,U,47887,999,15817,.44696E-3,.6382E-4,0
STARLINK-2348,2021-021AE,2024-01-20T19:29:21.776640,15.06412674,.0001366,53.0542,168.1362,90.0552,270.0594,0,U,47888,999,15832,.168E-3,.2223E-4,0
STARLINK-2349,2021-021AF,2024-01-20T19:45:17.824608,15.06394052,.0001446,53.0550,168.0838,100.2930,259.8222,0,U,47889,999,15832,.1211E-3,.1522E-4,0
STARLINK-2351,2021-021AH,2024-01-20T19:54:34.734816,15.06414960,.0001041,53.0522,178.0546,114.2152,245.8946,0,U,47891,999,15818,.27533E-3,.3824E-4,0
STARLINK-2352,2021-021AJ,2024-01-20T13:14:59.904672,15.06416639,.0001446,53.0543,138.5319,76.2607,283.8543,0,U,47892,999,15920,.13025E-3,.166E-4,0
STARLINK-2354,2021-021AL,2024-01-20T18:52:13.108512,15.06410100,.0001252,53.0537,168.2522,73.8735,286.2392,0,U,47894,999,15832,.10737E-3,.1319E-4,0
STARLINK-2355,2021-021AM,2024-01-20T19:08:08.274336,15.06412739,.0001273,53.0528,168.2009,83.6171,276.4963,0,U,47895,999,15832,.24065E-3,.3306E-4,0
STARLINK-2356,2021-021AN,2024-01-20T17:22:39.347328,15.06407864,.0001302,53.0519,183.5288,106.6448,253.4684,0,U,47896,999,15809,.27113E-3,.376E-4,0
STARLINK-2357,2021-021AP,2024-01-20T18:56:08.900160,15.06415491,.0001682,53.0543,168.1624,95.5143,264.6038,0,U,47897,999,15832,.79289E-4,.9E-5,0
STARLINK-2358,2021-021AQ,2024-01-20T18:57:31.655808,15.06407010,.0001275,53.0532,168.2364,90.8811,269.2324,0,U,47898,999,15832,.17015E-3,.2254E-4,0
STARLINK-2360,2021-021AS,2024-01-20T16:16:57.613440,15.06392014,.0001178,53.0537,168.7363,77.5532,282.5589,0,U,47900,999,15830,-.22728E-3,-.3664E-4,0
STARLINK-2361,2021-021AT,2024-01-20T18:37:36.692832,15.06423511,.0001385,53.0550,158.3855,66.8923,293.2212,0,U,47901,999,15845,.293E-3,.4088E-4,0
STARLINK-2362,2021-021AU,2024-01-20T19:49:19.068960,15.06390249,.0001268,53.0539,178.0726,81.6619,278.4514,0,U,47902,999,15817,-.85044E-4,-.1548E-4,0
STARLINK-2363,2021-021AV,2024-01-20T18:46:53.230656,15.06410484,.0001324,53.0542,158.2576,97.0311,263.0829,0,U,47903,999,15846,.14809E-3,.1926E-4,0
STARLINK-2364,2021-021AW,2024-01-20T18:42:55.606464,15.06415060,.000144,53.0543,158.2775,78.1389,281.9761,0,U,47904,999,15846,.22815E-3,.312E-4,0
STARLINK-2365,2021-021AX,2024-01-20T15:25:09.755328,15.06432459,.0001274,53.0529,158.8869,69.1721,290.9404,0,U,47905,999,15844,.54366E-3,.7833E-4,0
STARLINK-2367,2021-021AZ,2024-01-20T17:15:21.569760,15.06415699,.0000861,53.0537,178.5525,85.8884,274.2203,0,U,47907,999,15816,.17112E-3,.227E-4,0
STARLINK-2368,2021-021BA,2024-01-20T17:25:57.870336,15.06412047,.0001301,53.0519,178.5210,89.9005,270.2133,0,U,47908,999,15817,.1981E-3,.2671E-4,0
STARLINK-2369,2021-021BB,2024-01-20T16:12:59.228064,15.06407280,.0001328,53.0535,168.7483,76.1202,283.9934,0,U,47909,999,15830,.11237E-3,.1393E-4,0
STARLINK-2370,2021-021BC,2024-01-20T17:27:19.819872,15.06409451,.0001261,53.0533,168.6820,78.1898,281.9233,0,U,47910,999,15831,.26572E-3,.368E-4,0
STARLINK-2371,2021-021BD,2024-01-20T17:27:59.574240,15.06410595,.0001364,53.0520,183.7562,88.6010,271.5135,0,U,47911,999,15841,.22691E-3,.3101E-4,0
STARLINK-2372,2021-021BE,2024-01-20T16:54:04.923360,15.06409305,.0001404,53.0530,168.6101,93.7117,266.4032,0,U,47912,999,15830,.19053E-3,.2558E-4,0
STARLINK-2374,2021-021BF,2024-01-20T17:04:48.596448,15.06409740,.0001372,53.0539,179.0554,79.4377,280.6766,0,U,47913,999,15815,.1609E-3,.2117E-4,0
STARLINK-2375,2021-021BG,2024-01-20T15:55:44.048928,15.06405243,.0001396,53.0547,178.7988,101.4639,258.6507,0,U,47914,999,15815,.12621E-3,.1599E-4,0
STARLINK-2376,2021-021BH,2024-01-20T19:04:49.289952,15.06407034,.0001337,53.0555,173.2084,96.3430,263.7711,0,U,47915,999,15824,.1371E-3,.1762E-4,0
STARLINK-2378,2021-021BJ,2024-01-20T18:26:59.941248,15.06424340,.0001292,53.0532,158.3265,77.4684,282.6449,0,U,47916,999,15845,.51842E-3,.7454E-4,0
