STARLINK-2340           
1 47882U 21021Y   24020.81574483  .00005894  00000+0  41402-3 0  9992
2 47882  53.0518 168.1177 0001305  95.0786 265.0352 15.06417587158324
STARLINK-2342           
1 47883U 21021Z   24020.78763569  .00002218  00000+0  16771-3 0  9992
2 47883  53.0533 173.2450 0001236  94.2915 265.8215 15.06414099158243
STARLINK-2343           
1 47884U 21021AA  24020.70425662  .00000735  00000+0  68195-4 0  9994
2 47884  53.0541 178.6213 0001260  87.6531 272.4602 15.06401563158163
STARLINK-2344           
1 47885U 21021AB  24020.76459905 -.00007395  00000+0 -47753-3 0  9995
2 47885  53.0546 183.3490 0000969  57.2279 302.8804 15.06443322158099
STARLINK-2346           
1 47887U 21021AD  24020.72270266  .00006382  00000+0  44696-3 0  9990
2 47887  53.0527 178.5387 0001669  69.8301 290.2868 15.06400758158179
STARLINK-2348           
1 47888U 21021AE  24020.81205760  .00002223  00000+0  16800-3 0  9994
2 47888  53.0542 168.1362 0001366  90.0552 270.0594 15.06412674158322
STARLINK-2349           
1 47889U 21021AF  24020.82312297  .00001522  00000+0  12110-3 0  9991
2 47889  53.0550 168.0838 0001446 100.2930 259.8222 15.06394052158324
STARLINK-2351           
1 47891U 21021AH  24020.82956869  .00003824  00000+0  27533-3 0  9995
2 47891  53.0522 178.0546 0001041 114.2152 245.8946 15.06414960158188
STARLINK-2352           
1 47892U 21021AJ  24020.55208223  .00001660  00000+0  13025-3 0  9997
2 47892  53.0543 138.5319 0001446  76.2607 283.8543 15.06416639159206
STARLINK-2354           
1 47894U 21021AL  24020.78626283  .00001319  00000+0  10737-3 0  9992
2 47894  53.0537 168.2522 0001252  73.8735 286.2392 15.06410100158325
STARLINK-2355           
1 47895U 21021AM  24020.79731799  .00003306  00000+0  24065-3 0  9990
2 47895  53.0528 168.2009 0001273  83.6171 276.4963 15.06412739158327
STARLINK-2356           
1 47896U 21021AN  24020.72406652  .00003760  00000+0  27113-3 0  9992
2 47896  53.0519 183.5288 0001302 106.6448 253.4684 15.06407864158095
STARLINK-2357           
1 47897U 21021AP  24020.78899190  .00000900  00000+0  79289-4 0  9997
2 47897  53.0543 168.1624 0001682  95.5143 264.6038 15.06415491158323
STARLINK-2358           
1 47898U 21021AQ  24020.78994972  .00002254  00000+0  17015-3 0  9994
2 47898  53.0532 168.2364 0001275  90.8811 269.2324 15.06407010158329
STARLINK-2360           
1 47900U 21021AS  24020.67844460 -.00003664  00000+0 -22728-3 0  9997
2 47900  53.0537 168.7363 0001178  77.5532 282.5589 15.06392014158302
STARLINK-2361           
1 47901U 21021AT  24020.77611913  .00004088  00000+0  29300-3 0  9996
2 47901  53.0550 158.3855 0001385  66.8923 293.2212 15.06423511158459
STARLINK-2362           
1 47902U 21021AU  24020.82591515 -.00001548  00000+0 -85044-4 0  9996
2 47902  53.0539 178.0726 0001268  81.6619 278.4514 15.06390249158170
STARLINK-2363           
1 47903U 21021AV  24020.78256054  .00001926  00000+0  14809-3 0  9996
2 47903  53.0542 158.2576 0001324  97.0311 263.0829 15.06410484158466
STARLINK-2364           
1 47904U 21021AW  24020.77981026  .00003120  00000+0  22815-3 0  9994
2 47904  53.0543 158.2775 0001440  78.1389 281.9761 15.06415060158462
STARLINK-2365           
1 47905U 21021AX  24020.64247402  .00007833  00000+0  54366-3 0  9995
2 47905  53.0529 158.8869 0001274  69.1721 290.9404 15.06432459158445
STARLINK-2367           
1 47907U 21021AZ  24020.71899965  .00002270  00000+0  17112-3 0  9990
2 47907  53.0537 178.5525 0000861  85.8884 274.2203 15.06415699158168
STARLINK-2368           
1 47908U 21021BA  24020.72636424  .00002671  00000+0  19810-3 0  9993
2 47908  53.0519 178.5210 0001301  89.9005 270.2133 15.06412047158173
STARLINK-2369           
1 47909U 21021BB  24020.67568551  .00001393  00000+0  11237-3 0  9998
2 47909  53.0535 168.7483 0001328  76.1202 283.9934 15.06407280158309
STARLINK-2370           
1 47910U 21021BC  24020.72731273  .00003680  00000+0  26572-3 0  9998
2 47910  53.0533 168.6820 0001261  78.1898 281.9233 15.06409451158315
STARLINK-2371           
1 47911U 21021BD  24020.72777285  .00003101  00000+0  22691-3 0  9998
2 47911  53.0520 183.7562 0001364  88.6010 271.5135 15.06410595158417
STARLINK-2372           
1 47912U 21021BE  24020.70422365  .00002558  00000+0  19053-3 0  9996
2 47912  53.0530 168.6101 0001404  93.7117 266.4032 15.06409305158304
STARLINK-2374           
1 47913U 21021BF  24020.71167357  .00002117  00000+0  16090-3 0  9994
2 47913  53.0539 179.0554 0001372  79.4377 280.6766 15.06409740158153
STARLINK-2375           
1 47914U 21021BG  24020.66370427  .00001599  00000+0  12621-3 0  9992
2 47914  53.0547 178.7988 0001396 101.4639 258.6507 15.06405243158155
STARLINK-2376           
1 47915U 21021BH  24020.79501493  .00001762  00000+0  13710-3 0  9998
2 47915  53.0555 173.2084 0001337  96.3430 263.7711 15.06407034158242
STARLINK-2378           
1 47916U 21021BJ  24020.76874932  .00007454  00000+0  51842-3 0  9999
2 47916  53.0532 158.3265 0001292  77.4684 282.6449 15.06424340158454
